C/2014 M1 (PANSTARRS),e,160.2200,234.7867,337.1656,16806,0.0000005,0.99966688,0.0000,08/27.8499/2015,2000,g  9.0,4.0
# From MPC 91614
P/2014 M4 (PANSTARRS),e,3.3346,263.2827,147.9607,5.876418,0.0691887,0.59362772,139.1703,06/27.0/2020,2000,g 15.0,4.0
# From MPC103844
P/2014 MG4 (Spacewatch-PANSTARRS),e,9.3711,311.7349,299.0804,5.011588,0.0878499,0.25995361,225.4055,06/27.0/2020,2000,g  9.5,4.0
# From MPC 98560
P/2014 O3 (PANSTARRS),e,7.8087,87.6404,204.5265,7.560024,0.0474154,0.38639356,107.1340,06/27.0/2020,2000,g 10.5,4.0
# From MPEC 2020-AA5
C/2014 OE4 (PANSTARRS),h,12/12.6320/2016,81.3311,240.4038,65.8681,1.002784,6.248121,2000,11.0,2.0
# From MPC100578
C/2014 Q1 (PANSTARRS),e,43.0500,9.1398,119.8882,925.7408,0.0000350,0.99965581,0.0000,07/05.0075/2015,2000,g  8.0,4.0
# From MPC115880
C/2014 R3 (PANSTARRS),e,90.9095,334.0929,113.4585,8468,0.0000013,0.99914077,0.0000,08/08.7669/2016,2000,g  6.5,4.0
# From MPC 91615
P/2014 R5 (Lemmon-PANSTARRS),e,1.0883,126.5529,213.7049,4.057071,0.1206105,0.41339622,265.5474,06/27.0/2020,2000,g 15.0,4.0
# From MPC104790
C/2014 S2 (PANSTARRS),e,64.4874,8.1235,87.3397,170.5424,0.0004425,0.98779078,0.0000,12/08.9756/2015,2000,g 10.0,4.0
# From MPC 91616
P/2014 U4 (PANSTARRS),e,6.4280,11.9233,347.7239,3.508558,0.1499723,0.46539851,325.2804,06/27.0/2020,2000,g 18.0,4.0
# From MPC 95211
P/2014 V1 (PANSTARRS),e,22.5093,166.2051,177.5528,5.482013,0.0767881,0.53392431,152.2480,06/27.0/2020,2000,g 14.0,4.0
# From MPC 93586
P/2014 W1 (PANSTARRS),e,8.8390,246.2459,152.2914,4.460735,0.1046151,0.38861549,226.9501,06/27.0/2020,2000,g 15.5,4.0
# From MPC110493
C/2014 W2 (PANSTARRS),e,82.0403,69.9691,84.9395,584.6926,0.0000697,0.99542827,0.0000,03/08.3250/2016,2000,g  7.5,4.0
# From MPC105542
P/2014 W4 (PANSTARRS),e,15.2690,33.3500,67.9270,6.601885,0.0581035,0.35204551,95.3042,06/27.0/2020,2000,g 11.0,4.0
# From MPC 91616
C/2014 W8 (PANSTARRS),e,41.9689,224.8243,227.9709,168.9526,0.0004488,0.97029831,0.0000,09/08.6769/2015,2000,g 11.0,4.0
# From MPC115880
C/2014 W10 (PANSTARRS),e,82.8709,43.1222,43.6578,829.0875,0.0000413,0.99086410,0.0000,03/04.4993/2016,2000,g  8.0,4.0
# From MPC107047
C/2014 W11 (PANSTARRS),e,20.7288,294.9390,227.5648,9.554520,0.0333727,0.61009600,64.1588,06/27.0/2020,2000,g 10.0,4.0
# From MPC 93587
P/2014 W12 (Gibbs),e,8.5141,299.2904,36.9157,3.517757,0.1493844,0.52402341,306.6171,06/27.0/2020,2000,g 15.0,4.0
# From MPC 94281
P/2014 X1 (Elenin),e,25.9979,61.5008,34.0081,6.211321,0.0636690,0.70849237,127.5484,06/27.0/2020,2000,g 15.0,4.0
# From MPC100579
C/2014 Y1 (PANSTARRS),h,01/16.5297/2016,14.9136,19.5413,182.3404,1.001592,2.252279,2000,9.5,4.0
# From MPC 93587
C/2015 A2 (PANSTARRS),p,08/01.8353/2015,109.1696,208.8369,5.341055,258.5042,2000,10.5,4.0
# From MPC 92275
P/2015 A3 (PANSTARRS),e,172.5280,277.1595,249.2116,7.807036,0.0451830,0.85164043,88.3469,06/27.0/2020,2000,g 20.0,4.0
# From MPC 99270
P/2015 B1 (PANSTARRS),e,18.0261,353.0504,188.7870,9.502082,0.0336493,0.36912829,58.7301,06/27.0/2020,2000,g  8.5,4.0
# From MPC108592
C/2015 B2 (PANSTARRS),h,05/05.9162/2016,105.0055,341.8626,284.7142,1.000081,3.368879,2000,9.5,4.0
# From MPC109141
P/2015 B4 (Lemmon-PANSTARRS),e,1.7600,266.0254,227.5105,8.536735,0.0395154,0.56061995,77.7746,06/27.0/2020,2000,g 11.0,4.0
# From MPC101096
P/2015 C1 (TOTAS-Gibbs),e,13.8863,348.8304,178.3766,6.588268,0.0582837,0.56027789,109.9431,06/27.0/2020,2000,g 12.5,4.0
# From MPC119995
C/2015 D3 (PANSTARRS),h,05/03.0160/2016,128.5459,157.0471,2.9907,1.003890,8.147907,2000,5.5,4.0
# From MPC109141
P/2015 D5 (Kowalski),e,20.4946,74.0605,39.9595,8.976772,0.0366458,0.48885916,83.4951,06/27.0/2020,2000,g  9.0,4.0
# From MPC 96866
P/2015 D6 (Lemmon-PANSTARRS),e,20.2059,46.0885,125.2434,7.150156,0.0515503,0.36233158,93.7221,06/27.0/2020,2000,g 10.5,4.0
# From MPC112390
C/2015 ER61 (PANSTARRS),e,6.3438,235.1897,68.2470,471.9074,0.0000961,0.99779206,0.0000,05/10.3786/2017,2000,g 11.0,2.0
# From MPEC 2018-BF5
C/2015 E61-B (PANSTARRS),e,6.3453,235.2249,68.3362,1231,0.0000228,0.99915201,0.0000,05/10.3561/2017,2000,g 13.5,2.0
# From MPC109142
P/2015 F1 (PANSTARRS),e,2.8025,40.4003,187.4335,3.523553,0.1490160,0.27820503,287.3657,06/27.0/2020,2000,g 12.5,4.0
# From MPC115880
C/2015 F4 (Jacques),e,48.8085,285.9191,36.3243,117.8531,0.0007704,0.98608688,0.0000,08/12.0740/2015,2000,g 11.0,4.0
# From MPC102096
C/2015 GX (PANSTARRS),e,90.2569,235.4740,108.7989,16.16198,0.0151692,0.87868445,26.7779,06/27.0/2020,2000,g 14.0,4.0
# From MPC117068
C/2015 H2 (PANSTARRS),h,09/14.2803/2016,33.6636,350.6860,288.0551,1.005608,4.974701,2000,7.5,4.0
# From MPC100280
P/2015 HG16 (PANSTARRS),e,18.8332,59.1006,47.2648,4.750932,0.0951778,0.34977572,208.8588,06/27.0/2020,2000,g 12.5,4.0
# From MPC101096
C/2015 J2 (PANSTARRS),e,17.2719,56.7609,203.9132,296.1847,0.0001934,0.98536706,0.0000,09/09.9955/2015,2000,g 10.0,4.0
# From MPC 95733
P/2015 J3 (NEOWISE),e,8.1310,111.3517,129.4413,3.348964,0.1608194,0.55446798,311.8952,06/27.0/2020,2000,g 16.5,4.0
# From MPC 95213
P/2015 K5 (PANSTARRS),e,39.9456,134.1820,106.3029,6.718445,0.0565980,0.55393551,104.5750,06/27.0/2020,2000,g 13.5,4.0
# From MPC107684
P/2015 M2 (PANSTARRS),e,3.9734,86.5798,225.2669,7.224669,0.0507548,0.18111548,89.0646,06/27.0/2020,2000,g  8.5,4.0
# From MPC115881
C/2015 M3 (PANSTARRS),e,65.8722,143.0016,123.8994,138.7426,0.0006031,0.97434290,0.0000,08/26.1521/2015,2000,g 12.0,4.0
# From MPC112390
C/2015 O1 (PANSTARRS),h,02/19.4372/2018,127.2264,299.8518,89.6351,1.000846,3.730247,2000,6.5,4.0
# From MPC 96280
C/2015 P3 (SWAN),e,58.1976,87.9998,133.1282,267.1791,0.0002257,0.99729337,0.0000,07/27.3289/2015,2000,g 15.5,4.0
# From MPC 99819
P/2015 P4 (PANSTARRS),e,8.7179,104.7685,280.5799,6.051092,0.0662145,0.58424188,107.3223,06/27.0/2020,2000,g 14.0,4.0
# From MPC102952
P/2015 PD229 (Cameron-ISON),e,2.0261,342.6419,352.3721,7.179836,0.0512309,0.32805118,91.0979,06/27.0/2020,2000,g 11.5,2.0
# From MPC 99819
P/2015 Q1 (Scotti),e,22.3930,202.9962,199.8603,3.471156,0.1524028,0.47855442,269.0696,06/27.0/2020,2000,g 14.0,4.0
# From MPC 96867
P/2015 Q2 (Pimentel),e,146.4768,228.3882,244.4343,7.345416,0.0495085,0.75110062,86.9303,06/27.0/2020,2000,g 15.5,4.0
# From MPC 98562
P/2015 R1 (PANSTARRS),e,22.6751,48.4647,300.3912,5.880878,0.0691100,0.63382648,126.2484,06/27.0/2020,2000,g 14.0,4.0
# From MPC 95734
P/2015 R2 (PANSTARRS),e,15.4751,168.6068,149.7209,4.489127,0.1036242,0.45269895,190.9461,06/27.0/2020,2000,g 14.5,4.0
# From MPC117068
C/2015 T2 (PANSTARRS),e,124.5490,51.0419,30.6619,2344,0.0000087,0.99704127,0.0000,05/18.6970/2017,2000,g  8.0,4.0
# From MPC 96280
P/2015 T3 (PANSTARRS),e,13.0937,120.5019,178.6330,4.326181,0.1095335,0.50818108,359.9227,12/21.0/2014,2000,g 14.0,4.0
# From MPC102953
C/2015 T4 (PANSTARRS),e,87.9714,251.8067,270.0630,80.08249,0.0013753,0.97130284,0.0000,06/17.2235/2016,2000,g 11.0,4.0
# From MPC102097
C/2015 T5 (Sheppard-Tholen),e,11.0500,311.0727,61.8105,28.09955,0.0066169,0.66789644,10.7030,06/27.0/2020,2000,g  7.5,4.0
# From MPC102953
P/2015 TO19 (Lemmon-PANSTARRS),e,6.4995,321.6487,89.1661,4.557166,0.1013122,0.35783014,159.5441,06/27.0/2020,2000,g 14.0,4.0
# From MPC110080
P/2015 TP200 (LINEAR),e,8.7747,6.9864,82.6856,7.279860,0.0501787,0.53485727,67.1770,06/27.0/2020,2000,g 11.0,4.0
# From MPC101097
C/2015 TQ209 (LINEAR),e,11.3030,223.3598,282.1768,642.4362,0.0000605,0.99779556,0.0000,08/25.9180/2016,2000,g 10.5,4.0
# From MPC115881
C/2015 V1 (PANSTARRS),e,139.2237,197.1904,179.6198,3234,0.0000054,0.99868000,0.0000,12/17.1744/2017,2000,g  6.5,4.0
# From MPC112390
C/2015 V2 (Johnson),h,06/12.1151/2017,49.8685,69.8682,164.9914,1.001872,1.642210,2000,5.0,4.0
# From MPC102953
C/2015 V3 (PANSTARRS),e,86.2472,2.2427,0.7146,628.1150,0.0000626,0.99326275,0.0000,11/23.9970/2015,2000,g  9.0,4.0
# From MPC104791
C/2015 V4 (PANSTARRS),e,60.7726,179.9211,307.0267,18.49318,0.0123933,0.70459228,17.3308,06/27.0/2020,2000,g  8.5,4.0
# From MPC115881
C/2015 VL62 (Lemmon-Yeung-PANSTARRS),h,08/27.9687/2017,165.8152,95.0903,128.7428,1.001104,2.715221,2000,8.0,4.0
# From MPC102098
C/2015 WZ (PANSTARRS),e,134.5856,40.1558,66.6921,146.4015,0.0005564,0.99058101,0.0000,04/13.8735/2016,2000,g 15.0,4.0
# From MPC109142
C/2015 W1 (Gibbs),e,87.3652,114.3163,48.1895,6331,0.0000020,0.99964572,0.0000,05/14.5743/2016,2000,g 13.0,4.0
# From MPC101098
P/2015 W2 (Catalina),e,11.6070,294.2584,117.5306,7.298982,0.0499817,0.63351289,86.5590,06/27.0/2020,2000,g 13.0,4.0
# From MPC101098
P/2015 X1 (PANSTARRS),e,12.1516,161.7731,218.9649,3.631053,0.1424476,0.41893767,245.6983,06/27.0/2020,2000,g 16.0,4.0
# From MPEC 2020-AA5
C/2015 XY1 (Lemmon),h,04/28.2821/2018,148.8558,281.6260,196.2608,1.003529,7.925124,2000,5.5,4.0
# From MPC100281
C/2015 X2 (Catalina),e,72.0740,101.0989,42.3510,15.80350,0.0156882,0.87808406,25.9264,06/27.0/2020,2000,g 16.0,4.0
# From MPC 97498
P/2015 X3 (PANSTARRS),e,24.3833,77.3282,306.6526,5.010967,0.0878662,0.43843614,156.8960,06/27.0/2020,2000,g 15.0,4.0
# From MPC109142
C/2015 X4 (Elenin),e,29.5025,262.6155,176.2377,17.94900,0.0129612,0.81110745,22.0165,06/27.0/2020,2000,g 10.0,4.0
# From MPC119995
C/2015 X5 (PANSTARRS),h,12/29.8947/2017,124.3082,122.3465,27.6864,1.002516,6.798689,2000,7.5,4.0
# From MPC115881
P/2015 X6 (PANSTARRS),e,4.5648,106.9465,329.8841,2.752719,0.2158049,0.17239854,335.7914,06/27.0/2020,2000,g 16.0,4.0
# From MPC109143
C/2015 X7 (ATLAS),h,07/29.3716/2016,57.5613,139.9214,348.4301,1.000011,3.683993,2000,9.0,4.0
# From MPC107048
C/2015 X8 (NEOWISE),e,155.1953,191.1563,20.4103,19.75802,0.0112225,0.94004102,19.1643,06/27.0/2020,2000,g 16.0,4.0
# From MPC109143
C/2015 Y1 (LINEAR),e,71.1671,135.8164,24.6832,250.3759,0.0002488,0.98994860,0.0000,05/14.0044/2016,2000,g 12.0,4.0
# From MPC105543
C/2015 YG1 (NEOWISE),e,57.2856,350.5498,102.4913,17.00011,0.0140613,0.87851690,24.3863,06/27.0/2020,2000,g 13.0,4.0
# From MPC119995
C/2016 A1 (PANSTARRS),h,11/22.8547/2017,121.2052,128.2063,10.2720,1.001745,5.324634,2000,6.0,4.0
# From MPC100282
